NORAD_CAT_ID,OBJECT_NAME,OBJECT_TYPE,EPOCH,MEAN_MOTION,ECCENTRICITY,INCLINATION,RA_OF_ASC_NODE,ARG_OF_PERICENTER,MEAN_ANOMALY,BSTAR,MEAN_MOTION_DOT,MEAN_MOTION_DDOT,TLE_LINE0,TLE_LINE1,TLE_LINE2,SEMIMAJOR_AXIS,PERIOD,APOGEE,PERIGEE,DECAYED
54054.0,STARLINK-5163,PAYLOAD,2023-12-10 12:21:31,15.08845084,0.0001309,53.2182,66.1602,97.1828,262.9313,3.7869e-06,-2.28e-06,0.0,0 STARLINK-5163,1 54054U 22136D   23344.51495204 -.00000228  00000-0  37869-5 0  9999,2 54054  53.2182  66.1602 0001309  97.1828 262.9313 15.08845084 63503,6917.865,95.437,540.635,538.824,0.0
54054.0,STARLINK-5163,PAYLOAD,2023-12-11 10:36:56,15.08837992,0.0001424,53.2183,61.9957,99.6398,260.4755,4.7104e-05,4.62e-06,0.0,0 STARLINK-5163,1 54054U 22136D   23345.44231551  .00000462  00000-0  47104-4 0  9996,2 54054  53.2183  61.9957 0001424  99.6398 260.4755 15.08837992 63644,6917.887,95.438,540.737,538.766,0.0
54054.0,STARLINK-5163,PAYLOAD,2023-12-11 12:12:19,15.08838412,0.0001335,53.2183,61.6998,91.2399,268.8746,6.3304e-05,7.2e-06,0.0,0 STARLINK-5163,1 54054U 22136D   23345.50855535  .00000720  00000-0  63304-4 0  9994,2 54054  53.2183  61.6998 0001335  91.2399 268.8746 15.08838412 63174,6917.885,95.438,540.674,538.827,0.0
54054.0,STARLINK-5163,PAYLOAD,2023-12-12 10:27:43,15.08835378,0.0001495,53.2183,57.5386,95.3794,264.7369,4.11e-05,3.66e-06,0.0,0 STARLINK-5163,1 54054U 22136D   23346.43592028  .00000366  00000-0  41100-4 0  9998,2 54054  53.2183  57.5386 0001495  95.3794 264.7369 15.08835378 63310,6917.895,95.438,540.794,538.725,0.0
54054.0,STARLINK-5163,PAYLOAD,2023-12-13 11:53:53,15.08846131,0.0001326,53.2177,52.7798,86.2116,273.9028,0.00010397,1.367e-05,0.0,0 STARLINK-5163,1 54054U 22136D   23347.49575368  .00001367  00000-0  10397-3 0  9998,2 54054  53.2177  52.7798 0001326  86.2116 273.9028 15.08846131 63950,6917.862,95.437,540.644,538.809,0.0
54054.0,STARLINK-5163,PAYLOAD,2023-12-14 11:44:40,15.08844278,0.0001504,53.2184,48.3188,75.8834,284.2326,6.307e-05,7.16e-06,0.0,0 STARLINK-5163,1 54054U 22136D   23348.48935746  .00000716  00000-0  63070-4 0  9992,2 54054  53.2184  48.3188 0001504  75.8834 284.2326 15.08844278 64105,6917.867,95.437,540.773,538.692,0.0
54054.0,STARLINK-5163,PAYLOAD,2023-12-15 11:35:28,15.08839882,0.0002124,53.2197,43.8537,56.6624,303.4571,7.0604e-06,-1.76e-06,0.0,0 STARLINK-5163,1 54054U 22136D   23349.48296377 -.00000176  00000-0  70604-5 0  9996,2 54054  53.2197  43.8537 0002124  56.6624 303.4571 15.08839882 64257,6917.881,95.438,541.215,538.276,0.0
54054.0,STARLINK-5163,PAYLOAD,2023-12-16 09:50:51,15.08841006,0.0002016,53.2195,39.6899,61.2561,298.8634,5.775e-05,6.31e-06,0.0,0 STARLINK-5163,1 54054U 22136D   23350.41032200  .00000631  00000-0  57750-4 0  9995,2 54054  53.2195  39.6899 0002016  61.2561 298.8634 15.08841006 63911,6917.877,95.437,541.137,538.348,0.0
54054.0,STARLINK-5163,PAYLOAD,2023-12-17 09:41:38,15.08842199,0.0001601,53.2178,35.2344,73.5596,286.5572,8.3515e-05,1.041e-05,0.0,0 STARLINK-5163,1 54054U 22136D   23351.40391982  .00001041  00000-0  83515-4 0  9994,2 54054  53.2178  35.2344 0001601  73.5596 286.5572 15.08842199 64541,6917.874,95.437,540.846,538.631,0.0
54054.0,STARLINK-5163,PAYLOAD,2023-12-18 09:32:25,15.0884804,0.0001655,53.2187,30.7704,102.3689,257.7488,0.00011246,1.503e-05,0.0,0 STARLINK-5163,1 54054U 22136D   23352.39751248  .00001503  00000-0  11246-3 0  9992,2 54054  53.2187  30.7704 0001655 102.3689 257.7488 15.08848040 64215,6917.856,95.437,540.866,538.576,0.0
54054.0,STARLINK-5163,PAYLOAD,2023-12-19 09:23:13,15.08833639,0.0001633,53.2187,26.31,102.8398,257.2777,-2.6179e-05,-7.05e-06,0.0,0 STARLINK-5163,1 54054U 22136D   23353.39112712 -.00000705  00000-0 -26179-4 0  9997,2 54054  53.2187  26.3100 0001633 102.8398 257.2777 15.08833639 64847,6917.9,95.438,540.895,538.635,0.0
54054.0,STARLINK-5163,PAYLOAD,2023-12-20 07:38:37,15.08838872,0.0001503,53.2183,22.15,105.899,254.2167,-4.9329e-05,-1.073e-05,0.0,0 STARLINK-5163,1 54054U 22136D   23354.31848839 -.00001073  00000-0 -49329-4 0  9997,2 54054  53.2183  22.1500 0001503 105.8990 254.2167 15.08838872 64505,6917.884,95.438,540.789,538.709,0.0
54054.0,STARLINK-5163,PAYLOAD,2023-12-21 09:04:47,15.08842773,0.0001449,53.2185,17.3891,90.9948,269.121,0.00018507,2.659e-05,0.0,0 STARLINK-5163,1 54054U 22136D   23355.37832340  .00002659  00000-0  18507-3 0  9996,2 54054  53.2185  17.3891 0001449  90.9948 269.1210 15.08842773 65142,6917.872,95.437,540.739,538.735,0.0
54054.0,STARLINK-5163,PAYLOAD,2023-12-22 08:55:34,15.08844143,0.0001437,53.2183,12.9289,89.4218,270.6938,8.0481e-05,9.93e-06,0.0,0 STARLINK-5163,1 54054U 22136D   23356.37192847  .00000993  00000-0  80481-4 0  9998,2 54054  53.2183  12.9289 0001437  89.4218 270.6938 15.08844143 65295,6917.868,95.437,540.727,538.739,0.0
54054.0,STARLINK-5163,PAYLOAD,2023-12-22 23:14:03,15.08838992,0.000154,53.2192,10.252,83.2815,276.8352,-2.1079e-05,-6.23e-06,0.0,0 STARLINK-5163,1 54054U 22136D   23356.96809559 -.00000623  00000-0 -21079-4 0  9998,2 54054  53.2192  10.2520 0001540  83.2815 276.8352 15.08838992 65387,6917.883,95.438,540.814,538.683,0.0
54054.0,STARLINK-5163,PAYLOAD,2023-12-23 10:21:44,15.0884352,0.000149,53.2182,8.164,86.9519,273.1644,5.8809e-05,6.48e-06,0.0,0 STARLINK-5163,1 54054U 22136D   23357.43177013  .00000648  00000-0  58809-4 0  9990,2 54054  53.2182   8.1640 0001490  86.9519 273.1644 15.08843520 64971,6917.87,95.437,540.765,538.704,0.0
54054.0,STARLINK-5163,PAYLOAD,2023-12-24 10:12:31,15.08851491,0.0001761,53.2176,3.703,125.3645,234.7512,0.00021744,3.175e-05,0.0,0 STARLINK-5163,1 54054U 22136D   23358.42536554  .00003175  00000-0  21744-3 0  9994,2 54054  53.2176   3.7030 0001761 125.3645 234.7512 15.08851491 65128,6917.845,95.437,540.928,538.492,0.0
54054.0,STARLINK-5163,PAYLOAD,2023-12-25 03:41:46,15.08841716,0.0001634,53.2172,0.4286,120.1796,239.9358,0.00013888,1.923e-05,0.0,0 STARLINK-5163,1 54054U 22136D   23359.15401114  .00001923  00000-0  13888-3 0  9997,2 54054  53.2172   0.4286 0001634 120.1796 239.9358 15.08841716 65719,6917.875,95.437,540.871,538.61,0.0
54054.0,STARLINK-5163,PAYLOAD,2023-12-25 06:52:32,15.08844894,0.0001558,53.2172,359.8392,112.8948,247.2209,0.00019322,2.789e-05,0.0,0 STARLINK-5163,1 54054U 22136D   23359.28649059  .00002789  00000-0  19322-3 0  9993,2 54054  53.2172 359.8392 0001558 112.8948 247.2209 15.08844894 65256,6917.865,95.437,540.808,538.653,0.0
54054.0,STARLINK-5163,PAYLOAD,2023-12-26 03:32:34,15.08837355,0.0001522,53.2166,355.9807,105.2948,254.8212,-2.2125e-05,-6.4e-06,0.0,0 STARLINK-5163,1 54054U 22136D   23360.14761582 -.00000640  00000-0 -22125-4 0  9998,2 54054  53.2166 355.9807 0001522 105.2948 254.8212 15.08837355 65863,6917.888,95.438,540.806,538.701,0.0
54054.0,STARLINK-5163,PAYLOAD,2023-12-26 06:43:20,15.0883845,0.0001588,53.2164,355.3853,110.952,249.1642,1.5462e-06,-2.63e-06,0.0,0 STARLINK-5163,1 54054U 22136D   23360.28009509 -.00000263  00000-0  15462-5 0  9994,2 54054  53.2164 355.3853 0001588 110.9520 249.1642 15.08838450 65408,6917.885,95.438,540.849,538.652,0.0
54054.0,STARLINK-5163,PAYLOAD,2023-12-27 04:58:44,15.0883937,0.0001446,53.2169,351.223,99.507,260.6085,8.9773e-05,1.141e-05,0.0,0 STARLINK-5163,1 54054U 22136D   23361.20745674  .00001141  00000-0  89773-4 0  9997,2 54054  53.2169 351.2230 0001446  99.5070 260.6085 15.08839370 66022,6917.882,95.438,540.748,538.747,0.0
54054.0,STARLINK-5163,PAYLOAD,2023-12-28 03:14:08,15.08834795,0.0001408,53.2173,347.0602,101.1183,258.9968,0.00010948,1.455e-05,0.0,0 STARLINK-5163,1 54054U 22136D   23362.13482184  .00001455  00000-0  10948-3 0  9999,2 54054  53.2173 347.0602 0001408 101.1183 258.9968 15.08834795 66167,6917.896,95.438,540.735,538.787,0.0
54054.0,STARLINK-5163,PAYLOAD,2023-12-28 08:00:18,15.08832928,0.0001407,53.2178,346.166,96.2185,263.8967,0.00023894,3.516e-05,0.0,0 STARLINK-5163,1 54054U 22136D   23362.33354167  .00003516  00000-0  23894-3 0  9994,2 54054  53.2178 346.1660 0001407  96.2185 263.8967 15.08832928 65711,6917.902,95.438,540.74,538.794,0.0
54054.0,STARLINK-5163,PAYLOAD,2023-12-29 07:51:05,15.08839456,0.0001393,53.2182,341.7026,88.7264,271.3888,0.00012823,1.753e-05,0.0,0 STARLINK-5163,1 54054U 22136D   23363.32714153  .00001753  00000-0  12823-3 0  9990,2 54054  53.2182 341.7026 0001393  88.7264 271.3888 15.08839456 66340,6917.882,95.438,540.711,538.783,0.0
54054.0,STARLINK-5163,PAYLOAD,2023-12-30 07:41:51,15.08850525,0.0001532,53.219,337.241,77.6583,282.4581,0.00017883,2.56e-05,0.0,0 STARLINK-5163,1 54054U 22136D   23364.32073356  .00002560  00000-0  17883-3 0  9992,2 54054  53.2190 337.2410 0001532  77.6583 282.4581 15.08850525 66491,6917.848,95.437,540.773,538.653,0.0
54054.0,STARLINK-5163,PAYLOAD,2023-12-31 02:46:29,15.08842308,0.0001661,53.2193,333.6714,103.1217,256.996,6.2887e-05,7.13e-06,0.0,0 STARLINK-5163,1 54054U 22136D   23365.11561960  .00000713  00000-0  62887-4 0  9996,2 54054  53.2193 333.6714 0001661 103.1217 256.9960 15.08842308 66614,6917.873,95.437,540.887,538.589,0.0
54054.0,STARLINK-5163,PAYLOAD,2023-12-31 07:32:38,15.08842495,0.0001608,53.2194,332.7773,91.6225,268.4951,6.719e-05,7.82e-06,0.0,0 STARLINK-5163,1 54054U 22136D   23365.31434012  .00000782  00000-0  67190-4 0  9993,2 54054  53.2194 332.7773 0001608  91.6225 268.4951 15.08842495 66166,6917.873,95.437,540.85,538.625,0.0
54054.0,STARLINK-5163,PAYLOAD,2024-01-01 04:12:39,15.08846719,0.0001582,53.219,328.9127,109.1435,250.9728,2.3663e-05,8.9e-07,0.0,0 STARLINK-5163,1 54054U 22136D   24001.17545648  .00000089  00000-0  23663-4 0  9990,2 54054  53.2190 328.9127 0001582 109.1435 250.9728 15.08846719 66779,6917.86,95.437,540.819,538.63,0.0
54054.0,STARLINK-5163,PAYLOAD,2024-01-01 07:23:25,15.08845723,0.0001576,53.2186,328.3194,112.7518,247.364,2.4827e-05,1.07e-06,0.0,0 STARLINK-5163,1 54054U 22136D   24001.30793706  .00000107  00000-0  24827-4 0  9999,2 54054  53.2186 328.3194 0001576 112.7518 247.3640 15.08845723 66314,6917.863,95.437,540.818,538.638,0.0
